start=new Date('2023-01-12T00:00:00.000Z').valueOf();
sats=[{"SITE":"AFWTR","MEAN_MOTION_DDOT":"0.0000000000000","INCLINATION":"70.0024","TLE_LINE2":"2 49148  70.0024 301.3166 0003027 274.1622  85.9191 14.98319600 73775","MEAN_MOTION_DOT":"-0.00001476","REV_AT_EPOCH":"7377","NORAD_CAT_ID":"49148","EPHEMERIS_TYPE":"0","GP_ID":"222823878","ELEMENT_SET_NO":"999","SEMIMAJOR_AXIS":"6950.225","OBJECT_NAME":"STARLINK-3048","COUNTRY_CODE":"US","CENTER_NAME":"EARTH","ARG_OF_PERICENTER":"274.1622","APOAPSIS":"574.194","TLE_LINE1":"1 49148U 21082U   23011.78788315 -.00001476  00000-0 -11595-3 0  9997","OBJECT_ID":"2021-082U","ECCENTRICITY":"0.00030270","RA_OF_ASC_NODE":"301.3166","DECAY_DATE":null,"EPOCH":"2023-01-11T18:54:33.104160","PERIOD":"96.108","MEAN_ELEMENT_THEORY":"SGP4","FILE":"3740419","RCS_SIZE":"LARGE","CLASSIFICATION_TYPE":"U","BSTAR":"-0.00011595000000","TIME_SYSTEM":"UTC","MEAN_ANOMALY":"85.9191","LAUNCH_DATE":"2021-09-14","MEAN_MOTION":"14.98319600","PERIAPSIS":"569.986","REF_FRAME":"TEME","OBJECT_TYPE":"PAYLOAD"},{"MEAN_ANOMALY":"99.4459","BSTAR":"-0.00001707200000","TIME_SYSTEM":"UTC","CLASSIFICATION_TYPE":"U","RCS_SIZE":"LARGE","OBJECT_TYPE":"PAYLOAD","LAUNCH_DATE":"2021-09-14","MEAN_MOTION":"14.98342137","PERIAPSIS":"570.560","REF_FRAME":"TEME","DECAY_DATE":null,"RA_OF_ASC_NODE":"321.0898","ECCENTRICITY":"0.00021010","TLE_LINE1":"1 49149U 21082V   23011.88669660 -.00000297  00000-0 -17072-4 0  9997","OBJECT_ID":"2021-082V","FILE":"3740419","MEAN_ELEMENT_THEORY":"SGP4","PERIOD":"96.106","EPOCH":"2023-01-11T21:16:50.586240","OBJECT_NAME":"STARLINK-3053","SEMIMAJOR_AXIS":"6950.155","GP_ID":"222823131","ELEMENT_SET_NO":"999","APOAPSIS":"573.481","CENTER_NAME":"EARTH","ARG_OF_PERICENTER":"260.6463","COUNTRY_CODE":"US","TLE_LINE2":"2 49149  70.0025 321.0898 0002101 260.6463  99.4459 14.98342137 74491","MEAN_MOTION_DDOT":"0.0000000000000","INCLINATION":"70.0025","SITE":"AFWTR","EPHEMERIS_TYPE":"0","NORAD_CAT_ID":"49149","REV_AT_EPOCH":"7449","MEAN_MOTION_DOT":"-0.00000297"},{"OBJECT_TYPE":"PAYLOAD","LAUNCH_DATE":"2021-09-14","MEAN_MOTION":"14.98352217","PERIAPSIS":"570.263","REF_FRAME":"TEME","BSTAR":"0.00031493000000","TIME_SYSTEM":"UTC","MEAN_ANOMALY":"100.6658","CLASSIFICATION_TYPE":"U","RCS_SIZE":"LARGE","MEAN_ELEMENT_THEORY":"SGP4","FILE":"3740419","PERIOD":"96.106","EPOCH":"2023-01-11T21:09:58.205088","RA_OF_ASC_NODE":"321.0966","DECAY_DATE":null,"TLE_LINE1":"1 49150U 21082W   23011.88192367  .00003669  00000-0  31493-3 0  9990","OBJECT_ID":"2021-082W","ECCENTRICITY":"0.00024840","COUNTRY_CODE":"US","APOAPSIS":"573.716","ARG_OF_PERICENTER":"259.4221","CENTER_NAME":"EARTH","OBJECT_NAME":"STARLINK-3104","GP_ID":"222822880","ELEMENT_SET_NO":"999","SEMIMAJOR_AXIS":"6950.124","NORAD_CAT_ID":"49150","REV_AT_EPOCH":"7449","MEAN_MOTION_DOT":"0.00003669","EPHEMERIS_TYPE":"0","TLE_LINE2":"2 49150  70.0048 321.0966 0002484 259.4221 100.6658 14.98352217 74492","INCLINATION":"70.0048","MEAN_MOTION_DDOT":"0.0000000000000","SITE":"AFWTR"},{"TLE_LINE2":"2 49151  70.0002 281.2133 0003002 258.1706 101.9116 14.98345508 75474","SITE":"AFWTR","INCLINATION":"70.0002","MEAN_MOTION_DDOT":"0.0000000000000","EPHEMERIS_TYPE":"0","MEAN_MOTION_DOT":"0.00002913","REV_AT_EPOCH":"7547","NORAD_CAT_ID":"49151","OBJECT_NAME":"STARLINK-3102","SEMIMAJOR_AXIS":"6950.145","ELEMENT_SET_NO":"999","GP_ID":"222823632","CENTER_NAME":"EARTH","ARG_OF_PERICENTER":"258.1706","APOAPSIS":"574.096","COUNTRY_CODE":"US","DECAY_DATE":null,"RA_OF_ASC_NODE":"281.2133","ECCENTRICITY":"0.00030020","TLE_LINE1":"1 49151U 21082X   23011.83210321  .00002913  00000-0  25176-3 0  9999","OBJECT_ID":"2021-082X","FILE":"3740419","MEAN_ELEMENT_THEORY":"SGP4","EPOCH":"2023-01-11T19:58:13.717344","PERIOD":"96.106","CLASSIFICATION_TYPE":"U","MEAN_ANOMALY":"101.9116","BSTAR":"0.00025176000000","TIME_SYSTEM":"UTC","RCS_SIZE":"LARGE","OBJECT_TYPE":"PAYLOAD","REF_FRAME":"TEME","LAUNCH_DATE":"2021-09-14","PERIAPSIS":"569.924","MEAN_MOTION":"14.98345508"},{"BSTAR":"-0.00016388000000","MEAN_ANOMALY":"98.5241","TIME_SYSTEM":"UTC","CLASSIFICATION_TYPE":"U","RCS_SIZE":"LARGE","OBJECT_TYPE":"PAYLOAD","LAUNCH_DATE":"2021-09-14","PERIAPSIS":"569.703","REF_FRAME":"TEME","MEAN_MOTION":"14.98326763","DECAY_DATE":null,"RA_OF_ASC_NODE":"281.0971","ECCENTRICITY":"0.00034030","TLE_LINE1":"1 49152U 21082Y   23011.87503768 -.00002048  00000-0 -16388-3 0  9990","OBJECT_ID":"2021-082Y","FILE":"3740419","MEAN_ELEMENT_THEORY":"SGP4","PERIOD":"96.107","EPOCH":"2023-01-11T21:00:03.255552","OBJECT_NAME":"STARLINK-3081","SEMIMAJOR_AXIS":"6950.203","ELEMENT_SET_NO":"999","GP_ID":"222824379","APOAPSIS":"574.433","ARG_OF_PERICENTER":"261.5532","CENTER_NAME":"EARTH","COUNTRY_CODE":"US","TLE_LINE2":"2 49152  70.0034 281.0971 0003403 261.5532  98.5241 14.98326763 75403","INCLINATION":"70.0034","MEAN_MOTION_DDOT":"0.0000000000000","SITE":"AFWTR","EPHEMERIS_TYPE":"0","NORAD_CAT_ID":"49152","REV_AT_EPOCH":"7540","MEAN_MOTION_DOT":"-0.00002048"},{"OBJECT_ID":"2021-082Z","TLE_LINE1":"1 49153U 21082Z   23011.22172116  .00006540  00000-0  55500-3 0  9997","ECCENTRICITY":"0.00033090","RA_OF_ASC_NODE":"282.7543","DECAY_DATE":null,"PERIOD":"96.105","EPOCH":"2023-01-11T05:19:16.708224","MEAN_ELEMENT_THEORY":"SGP4","FILE":"3740054","RCS_SIZE":"LARGE","BSTAR":"0.00055500000000","MEAN_ANOMALY":"83.0635","TIME_SYSTEM":"UTC","CLASSIFICATION_TYPE":"U","PERIAPSIS":"569.670","LAUNCH_DATE":"2021-09-14","REF_FRAME":"TEME","MEAN_MOTION":"14.98358443","OBJECT_TYPE":"PAYLOAD","MEAN_MOTION_DDOT":"0.0000000000000","INCLINATION":"70.0004","SITE":"AFWTR","TLE_LINE2":"2 49153  70.0004 282.7543 0003309 277.0148  83.0635 14.98358443 75398","NORAD_CAT_ID":"49153","REV_AT_EPOCH":"7539","MEAN_MOTION_DOT":"0.00006540","EPHEMERIS_TYPE":"0","ELEMENT_SET_NO":"999","GP_ID":"222765427","SEMIMAJOR_AXIS":"6950.105","OBJECT_NAME":"STARLINK-3072","COUNTRY_CODE":"US","APOAPSIS":"574.270","CENTER_NAME":"EARTH","ARG_OF_PERICENTER":"277.0148"},{"EPHEMERIS_TYPE":"0","NORAD_CAT_ID":"49154","REV_AT_EPOCH":"7485","MEAN_MOTION_DOT":"0.00003460","TLE_LINE2":"2 49154  70.0021 301.3361 0003031 244.7546 115.3300 14.98341867 74859","INCLINATION":"70.0021","MEAN_MOTION_DDOT":"0.0000000000000","SITE":"AFWTR","APOAPSIS":"574.128","CENTER_NAME":"EARTH","ARG_OF_PERICENTER":"244.7546","COUNTRY_CODE":"US","OBJECT_NAME":"STARLINK-3068","SEMIMAJOR_AXIS":"6950.156","GP_ID":"222823381","ELEMENT_SET_NO":"999","FILE":"3740419","MEAN_ELEMENT_THEORY":"SGP4","PERIOD":"96.106","EPOCH":"2023-01-11T18:47:39.619680","DECAY_DATE":null,"RA_OF_ASC_NODE":"301.3361","ECCENTRICITY":"0.00030310","OBJECT_ID":"2021-082AA","TLE_LINE1":"1 49154U 21082AA  23011.78309745  .00003460  00000-0  29752-3 0  9997","OBJECT_TYPE":"PAYLOAD","MEAN_MOTION":"14.98341867","LAUNCH_DATE":"2021-09-14","PERIAPSIS":"569.915","REF_FRAME":"TEME","TIME_SYSTEM":"UTC","BSTAR":"0.00029752000000","MEAN_ANOMALY":"115.3300","CLASSIFICATION_TYPE":"U","RCS_SIZE":"LARGE"},{"REV_AT_EPOCH":"7534","MEAN_MOTION_DOT":"0.00000208","NORAD_CAT_ID":"49155","EPHEMERIS_TYPE":"0","TLE_LINE2":"2 49155  69.9998 281.4281 0003358 248.7362 111.3439 14.98332133 75341","SITE":"AFWTR","MEAN_MOTION_DDOT":"0.0000000000000","INCLINATION":"69.9998","COUNTRY_CODE":"US","ARG_OF_PERICENTER":"248.7362","CENTER_NAME":"EARTH","APOAPSIS":"574.385","OBJECT_NAME":"STARLINK-3060","GP_ID":"222824133","ELEMENT_SET_NO":"999","SEMIMAJOR_AXIS":"6950.186","MEAN_ELEMENT_THEORY":"SGP4","FILE":"3740419","EPOCH":"2023-01-11T18:01:30.777024","PERIOD":"96.107","RA_OF_ASC_NODE":"281.4281","DECAY_DATE":null,"TLE_LINE1":"1 49155U 21082AB  23011.75105066  .00000208  00000-0  25204-4 0  9991","OBJECT_ID":"2021-082AB","ECCENTRICITY":"0.00033580","OBJECT_TYPE":"PAYLOAD","PERIAPSIS":"569.717","LAUNCH_DATE":"2021-09-14","MEAN_MOTION":"14.98332133","REF_FRAME":"TEME","CLASSIFICATION_TYPE":"U","BSTAR":"0.00002520400000","MEAN_ANOMALY":"111.3439","TIME_SYSTEM":"UTC","RCS_SIZE":"LARGE"},{"GP_ID":"222823879","ELEMENT_SET_NO":"999","SEMIMAJOR_AXIS":"6950.166","OBJECT_NAME":"STARLINK-3085","COUNTRY_CODE":"US","ARG_OF_PERICENTER":"296.2589","CENTER_NAME":"EARTH","APOAPSIS":"574.397","SITE":"AFWTR","MEAN_MOTION_DDOT":"0.0000000000000","INCLINATION":"70.0032","TLE_LINE2":"2 49156  70.0032 281.4629 0003405 296.2589  63.8220 14.98338803 75341","REV_AT_EPOCH":"7534","MEAN_MOTION_DOT":"0.00001458","NORAD_CAT_ID":"49156","EPHEMERIS_TYPE":"0","RCS_SIZE":"LARGE","CLASSIFICATION_TYPE":"U","BSTAR":"0.00012994000000","TIME_SYSTEM":"UTC","MEAN_ANOMALY":"63.8220","PERIAPSIS":"569.664","LAUNCH_DATE":"2021-09-14","REF_FRAME":"TEME","MEAN_MOTION":"14.98338803","OBJECT_TYPE":"PAYLOAD","TLE_LINE1":"1 49156U 21082AC  23011.73196365  .00001458  00000-0  12994-3 0  9991","OBJECT_ID":"2021-082AC","ECCENTRICITY":"0.00034050","RA_OF_ASC_NODE":"281.4629","DECAY_DATE":null,"EPOCH":"2023-01-11T17:34:01.659360","PERIOD":"96.106","MEAN_ELEMENT_THEORY":"SGP4","FILE":"3740419"},{"OBJECT_NAME":"STARLINK-3051","SEMIMAJOR_AXIS":"6950.215","GP_ID":"222823132","ELEMENT_SET_NO":"999","CENTER_NAME":"EARTH","ARG_OF_PERICENTER":"251.7961","APOAPSIS":"574.126","COUNTRY_CODE":"US","TLE_LINE2":"2 49157  70.0025 301.3475 0002944 251.7961 108.2878 14.98322808 74870","SITE":"AFWTR","INCLINATION":"70.0025","MEAN_MOTION_DDOT":"0.0000000000000","EPHEMERIS_TYPE":"0","REV_AT_EPOCH":"7487","MEAN_MOTION_DOT":"-0.00001176","NORAD_CAT_ID":"49157","CLASSIFICATION_TYPE":"U","BSTAR":"-0.00009082000000","TIME_SYSTEM":"UTC","MEAN_ANOMALY":"108.2878","RCS_SIZE":"LARGE","OBJECT_TYPE":"PAYLOAD","LAUNCH_DATE":"2021-09-14","REF_FRAME":"TEME","PERIAPSIS":"570.034","MEAN_MOTION":"14.98322808","DECAY_DATE":null,"RA_OF_ASC_NODE":"301.3475","ECCENTRICITY":"0.00029440","TLE_LINE1":"1 49157U 21082AD  23011.77834770 -.00001176  00000-0 -90820-4 0  9999","OBJECT_ID":"2021-082AD","FILE":"3740419","MEAN_ELEMENT_THEORY":"SGP4","EPOCH":"2023-01-11T18:40:49.241280","PERIOD":"96.107"}];
